BLUEBON                 
1 62688U 25009CH  26068.70316231  .00010452  00000+0  37313-3 0  9992
2 62688  97.4017 152.2033 0001193  43.3900 316.7434 15.29047253 63767
STARLINK-35719          
1 67183U 25303W   26068.39773203  .00025709  00000+0  93998-3 0  9997
2 67183  43.0006 312.0919 0001636 257.2789 102.7880 15.27598093 12694
